{
  "type": "FeatureCollection",
  "features": [
    {
      "type": "Feature",
      "properties": {
        "norad_id": 34340,
        "name": "COSMOS 2251 DEB",
        "group": "cosmos-2251-debris",
        "lat": -37.41211199603747,
        "lon": 124.44245475373195,
        "alt_km": 1179.6048968344867,
        "timestamp": "2025-12-22T09:53:37.794188+00:00",
        "meta_object_name": "COSMOS 2251 DEB",
        "meta_object_id": "1993-036PN",
        "meta_epoch": "2025-12-21T22:43:34.624128",
        "meta_mean_motion": 13.79608026,
        "meta_eccentricity": 0.0283811,
        "meta_inclination": 74.0788,
        "meta_ra_of_asc_node": 292.6087,
        "meta_arg_of_pericenter": 38.241,
        "meta_mean_anomaly": 30.8098,
        "meta_ephemeris_type": 0,
        "meta_classification_type": "U",
        "meta_norad_cat_id": 34340,
        "meta_element_set_no": 999,
        "meta_rev_at_epoch": 84395,
        "meta_bstar": 0.0014545,
        "meta_mean_motion_dot": 2.009e-05,
        "meta_mean_motion_ddot": 0,
        "tle_line1": "1 34340U 93036PN  25355.94692852  .00002009  00000+0  14545-2 0  9991",
        "tle_line2": "2 34340  74.0788 292.6087 0283811  38.2410  30.8098 13.79608026843954"
      },
      "geometry": {
        "type": "Point",
        "coordinates": [
          124.44245475373195,
          -37.41211199603747
        ]
      }
    },
    {
      "type": "Feature",
      "properties": {
        "norad_id": 34343,
        "name": "COSMOS 2251 DEB",
        "group": "cosmos-2251-debris",
        "lat": -0.6942737507714483,
        "lon": -109.00381338507236,
        "alt_km": 681.3453883326074,
        "timestamp": "2025-12-22T09:53:37.794198+00:00",
        "meta_object_name": "COSMOS 2251 DEB",
        "meta_object_id": "1993-036PR",
        "meta_epoch": "2025-12-22T04:17:31.152192",
        "meta_mean_motion": 14.69572874,
        "meta_eccentricity": 0.0024193,
        "meta_inclination": 74.0203,
        "meta_ra_of_asc_node": 71.2497,
        "meta_arg_of_pericenter": 342.969,
        "meta_mean_anomaly": 43.3847,
        "meta_ephemeris_type": 0,
        "meta_classification_type": "U",
        "meta_norad_cat_id": 34343,
        "meta_element_set_no": 999,
        "meta_rev_at_epoch": 88869,
        "meta_bstar": 0.001354,
        "meta_mean_motion_dot": 8.055e-05,
        "meta_mean_motion_ddot": 0,
        "tle_line1": "1 34343U 93036PR  25356.17883278  .00008055  00000+0  13540-2 0  9995",
        "tle_line2": "2 34343  74.0203  71.2497 0024193 342.9690  43.3847 14.69572874888698"
      },
      "geometry": {
        "type": "Point",
        "coordinates": [
          -109.00381338507236,
          -0.6942737507714483
        ]
      }
    },
    {
      "type": "Feature",
      "properties": {
        "norad_id": 34344,
        "name": "COSMOS 2251 DEB",
        "group": "cosmos-2251-debris",
        "lat": -51.51325444772968,
        "lon": -65.7330372941628,
        "alt_km": 757.5734509238064,
        "timestamp": "2025-12-22T09:53:37.794208+00:00",
        "meta_object_name": "COSMOS 2251 DEB",
        "meta_object_id": "1993-036PS",
        "meta_epoch": "2025-12-20T16:41:07.998144",
        "meta_mean_motion": 14.16466858,
        "meta_eccentricity": 0.01566321,
        "meta_inclination": 73.9786,
        "meta_ra_of_asc_node": 96.1449,
        "meta_arg_of_pericenter": 278.7098,
        "meta_mean_anomaly": 204.8003,
        "meta_ephemeris_type": 0,
        "meta_classification_type": "U",
        "meta_norad_cat_id": 34344,
        "meta_element_set_no": 999,
        "meta_rev_at_epoch": 86209,
        "meta_bstar": 0.0013151537,
        "meta_mean_motion_dot": 2.924e-05,
        "meta_mean_motion_ddot": 0,
        "tle_line1": "1 34344U 93036PS  25354.69523146  .00002924  00000+0  13152-2 0  9994",
        "tle_line2": "2 34344  73.9786  96.1449 0156632 278.7098 204.8003 14.16466858862098"
      },
      "geometry": {
        "type": "Point",
        "coordinates": [
          -65.7330372941628,
          -51.51325444772968
        ]
      }
    },
    {
      "type": "Feature",
      "properties": {
        "norad_id": 34346,
        "name": "COSMOS 2251 DEB",
        "group": "cosmos-2251-debris",
        "lat": 50.82436020555031,
        "lon": 94.83835852136588,
        "alt_km": 744.0695928009736,
        "timestamp": "2025-12-22T09:53:37.794218+00:00",
        "meta_object_name": "COSMOS 2251 DEB",
        "meta_object_id": "1993-036PU",
        "meta_epoch": "2025-12-21T06:26:28.020768",
        "meta_mean_motion": 13.99718018,
        "meta_eccentricity": 0.0206186,
        "meta_inclination": 73.9944,
        "meta_ra_of_asc_node": 297.4469,
        "meta_arg_of_pericenter": 114.3131,
        "meta_mean_anomaly": 9.62,
        "meta_ephemeris_type": 0,
        "meta_classification_type": "U",
        "meta_norad_cat_id": 34346,
        "meta_element_set_no": 999,
        "meta_rev_at_epoch": 85529,
        "meta_bstar": 0.00083055,
        "meta_mean_motion_dot": 1.438e-05,
        "meta_mean_motion_ddot": 0,
        "tle_line1": "1 34346U 93036PU  25355.26837987  .00001438  00000+0  83055-3 0  9990",
        "tle_line2": "2 34346  73.9944 297.4469 0206186 114.3131   9.6200 13.99718018855299"
      },
      "geometry": {
        "type": "Point",
        "coordinates": [
          94.83835852136588,
          50.82436020555031
        ]
      }
    },
    {
      "type": "Feature",
      "properties": {
        "norad_id": 34383,
        "name": "COSMOS 2251 DEB",
        "group": "cosmos-2251-debris",
        "lat": 0.1238783299299916,
        "lon": 97.70210540311895,
        "alt_km": 541.0023013100999,
        "timestamp": "2025-12-22T09:53:37.794228+00:00",
        "meta_object_name": "COSMOS 2251 DEB",
        "meta_object_id": "1993-036PY",
        "meta_epoch": "2025-12-21T20:39:03.380256",
        "meta_mean_motion": 15.09743212,
        "meta_eccentricity": 0.0002991,
        "meta_inclination": 74.0216,
        "meta_ra_of_asc_node": 278.8766,
        "meta_arg_of_pericenter": 45.6445,
        "meta_mean_anomaly": 16.3196,
        "meta_ephemeris_type": 0,
        "meta_classification_type": "U",
        "meta_norad_cat_id": 34383,
        "meta_element_set_no": 999,
        "meta_rev_at_epoch": 89251,
        "meta_bstar": 0.0026421,
        "meta_mean_motion_dot": 0.00042862,
        "meta_mean_motion_ddot": 0,
        "tle_line1": "1 34383U 93036PY  25355.86045579  .00042862  00000+0  26421-2 0  9994",
        "tle_line2": "2 34383  74.0216 278.8766 0002991  45.6445  16.3196 15.09743212892511"
      },
      "geometry": {
        "type": "Point",
        "coordinates": [
          97.70210540311895,
          0.1238783299299916
        ]
      }
    },
    {
      "type": "Feature",
      "properties": {
        "norad_id": 34387,
        "name": "COSMOS 2251 DEB",
        "group": "cosmos-2251-debris",
        "lat": -4.945146446171029,
        "lon": -167.50047317781846,
        "alt_km": 737.7034425364927,
        "timestamp": "2025-12-22T09:53:37.794300+00:00",
        "meta_object_name": "COSMOS 2251 DEB",
        "meta_object_id": "1993-036QC",
        "meta_epoch": "2025-12-20T21:37:25.254336",
        "meta_mean_motion": 14.43836534,
        "meta_eccentricity": 0.0038931,
        "meta_inclination": 74.0393,
        "meta_ra_of_asc_node": 196.7266,
        "meta_arg_of_pericenter": 292.1775,
        "meta_mean_anomaly": 130.3396,
        "meta_ephemeris_type": 0,
        "meta_classification_type": "U",
        "meta_norad_cat_id": 34387,
        "meta_element_set_no": 999,
        "meta_rev_at_epoch": 88299,
        "meta_bstar": 0.000206,
        "meta_mean_motion_dot": 6.81e-06,
        "meta_mean_motion_ddot": 0,
        "tle_line1": "1 34387U 93036QC  25354.90098674  .00000681  00000+0  20600-3 0  9993",
        "tle_line2": "2 34387  74.0393 196.7266 0038931 292.1775 130.3396 14.43836534882999"
      },
      "geometry": {
        "type": "Point",
        "coordinates": [
          -167.50047317781846,
          -4.945146446171029
        ]
      }
    },
    {
      "type": "Feature",
      "properties": {
        "norad_id": 34388,
        "name": "COSMOS 2251 DEB",
        "group": "cosmos-2251-debris",
        "lat": 9.231279910078129,
        "lon": 22.297742989151953,
        "alt_km": 727.5719440990406,
        "timestamp": "2025-12-22T09:53:37.794313+00:00",
        "meta_object_name": "COSMOS 2251 DEB",
        "meta_object_id": "1993-036QD",
        "meta_epoch": "2025-12-21T09:04:32.879712",
        "meta_mean_motion": 14.49402833,
        "meta_eccentricity": 0.00137831,
        "meta_inclination": 74.0375,
        "meta_ra_of_asc_node": 206.903,
        "meta_arg_of_pericenter": 254.5562,
        "meta_mean_anomaly": 282.3738,
        "meta_ephemeris_type": 0,
        "meta_classification_type": "U",
        "meta_norad_cat_id": 34388,
        "meta_element_set_no": 999,
        "meta_rev_at_epoch": 88280,
        "meta_bstar": 0.00046887318,
        "meta_mean_motion_dot": 1.768e-05,
        "meta_mean_motion_ddot": 0,
        "tle_line1": "1 34388U 93036QD  25355.37815833  .00001768  00000+0  46887-3 0  9992",
        "tle_line2": "2 34388  74.0375 206.9030 0013783 254.5562 282.3738 14.49402833882802"
      },
      "geometry": {
        "type": "Point",
        "coordinates": [
          22.297742989151953,
          9.231279910078129
        ]
      }
    }
  ]
}